{
  "type": "FeatureCollection",
  "features": [
    {
      "type": "Feature",
      "properties": {
        "norad_id": 30750,
        "name": "FENGYUN 1C DEB",
        "group": "fengyun-1c-debris",
        "lat": 70.44871886215134,
        "lon": -85.76950782959506,
        "alt_km": 763.5456834992738,
        "timestamp": "2025-12-19T06:59:44.187150+00:00",
        "meta_object_name": "FENGYUN 1C DEB",
        "meta_object_id": "1999-025ATL",
        "meta_epoch": "2025-12-18T03:54:52.610688",
        "meta_mean_motion": 14.28650283,
        "meta_eccentricity": 0.00401041,
        "meta_inclination": 98.9197,
        "meta_ra_of_asc_node": 66.8308,
        "meta_arg_of_pericenter": 84.4204,
        "meta_mean_anomaly": 342.6811,
        "meta_ephemeris_type": 0,
        "meta_classification_type": "U",
        "meta_norad_cat_id": 30750,
        "meta_element_set_no": 999,
        "meta_rev_at_epoch": 96859,
        "meta_bstar": 0.0013544423,
        "meta_mean_motion_dot": 3.388e-05,
        "meta_mean_motion_ddot": 0,
        "tle_line1": "1 30750U 99025ATL 25352.16310892  .00003388  00000+0  13544-2 0  9997",
        "tle_line2": "2 30750  98.9197  66.8308 0040104  84.4204 342.6811 14.28650283968593"
      },
      "geometry": {
        "type": "Point",
        "coordinates": [
          -85.76950782959506,
          70.44871886215134
        ]
      }
    },
    {
      "type": "Feature",
      "properties": {
        "norad_id": 30751,
        "name": "FENGYUN 1C DEB",
        "group": "fengyun-1c-debris",
        "lat": -62.69656200729851,
        "lon": -145.1303969048974,
        "alt_km": 884.9608940269709,
        "timestamp": "2025-12-19T06:59:44.187160+00:00",
        "meta_object_name": "FENGYUN 1C DEB",
        "meta_object_id": "1999-025ATM",
        "meta_epoch": "2025-12-18T16:49:53.077728",
        "meta_mean_motion": 14.15233041,
        "meta_eccentricity": 0.00518185,
        "meta_inclination": 98.8549,
        "meta_ra_of_asc_node": 51.8606,
        "meta_arg_of_pericenter": 79.6527,
        "meta_mean_anomaly": 39.0474,
        "meta_ephemeris_type": 0,
        "meta_classification_type": "U",
        "meta_norad_cat_id": 30751,
        "meta_element_set_no": 999,
        "meta_rev_at_epoch": 96360,
        "meta_bstar": 0.0011580512,
        "meta_mean_motion_dot": 2.237e-05,
        "meta_mean_motion_ddot": 0,
        "tle_line1": "1 30751U 99025ATM 25352.70130877  .00002237  00000+0  11581-2 0  9992",
        "tle_line2": "2 30751  98.8549  51.8606 0051818  79.6527  39.0474 14.15233041963601"
      },
      "geometry": {
        "type": "Point",
        "coordinates": [
          -145.1303969048974,
          -62.69656200729851
        ]
      }
    },
    {
      "type": "Feature",
      "properties": {
        "norad_id": 30753,
        "name": "FENGYUN 1C DEB",
        "group": "fengyun-1c-debris",
        "lat": -15.236733413898174,
        "lon": 34.19327247420618,
        "alt_km": 815.4330266502266,
        "timestamp": "2025-12-19T06:59:44.187171+00:00",
        "meta_object_name": "FENGYUN 1C DEB",
        "meta_object_id": "1999-025ATP",
        "meta_epoch": "2025-12-18T19:10:07.429440",
        "meta_mean_motion": 14.12669845,
        "meta_eccentricity": 0.00551918,
        "meta_inclination": 98.8068,
        "meta_ra_of_asc_node": 31.2887,
        "meta_arg_of_pericenter": 337.6016,
        "meta_mean_anomaly": 22.2747,
        "meta_ephemeris_type": 0,
        "meta_classification_type": "U",
        "meta_norad_cat_id": 30753,
        "meta_element_set_no": 999,
        "meta_rev_at_epoch": 96437,
        "meta_bstar": 0.00087426088,
        "meta_mean_motion_dot": 1.6e-05,
        "meta_mean_motion_ddot": 0,
        "tle_line1": "1 30753U 99025ATP 25352.79869710  .00001600  00000+0  87426-3 0  9993",
        "tle_line2": "2 30753  98.8068  31.2887 0055191 337.6016  22.2747 14.12669845964374"
      },
      "geometry": {
        "type": "Point",
        "coordinates": [
          34.19327247420618,
          -15.236733413898174
        ]
      }
    },
    {
      "type": "Feature",
      "properties": {
        "norad_id": 30755,
        "name": "FENGYUN 1C DEB",
        "group": "fengyun-1c-debris",
        "lat": 34.49031568256109,
        "lon": 173.40307469790898,
        "alt_km": 764.348155971833,
        "timestamp": "2025-12-19T06:59:44.187181+00:00",
        "meta_object_name": "FENGYUN 1C DEB",
        "meta_object_id": "1999-025ATR",
        "meta_epoch": "2025-12-18T11:05:25.444320",
        "meta_mean_motion": 14.44979682,
        "meta_eccentricity": 0.01508,
        "meta_inclination": 98.258,
        "meta_ra_of_asc_node": 346.8701,
        "meta_arg_of_pericenter": 251.5668,
        "meta_mean_anomaly": 263.2421,
        "meta_ephemeris_type": 0,
        "meta_classification_type": "U",
        "meta_norad_cat_id": 30755,
        "meta_element_set_no": 999,
        "meta_rev_at_epoch": 98527,
        "meta_bstar": 0.0004596202,
        "meta_mean_motion_dot": 1.793e-05,
        "meta_mean_motion_ddot": 0,
        "tle_line1": "1 30755U 99025ATR 25352.46210005  .00001793  00000+0  45962-3 0  9998",
        "tle_line2": "2 30755  98.2580 346.8701 0150800 251.5668 263.2421 14.44979682985275"
      },
      "geometry": {
        "type": "Point",
        "coordinates": [
          173.40307469790898,
          34.49031568256109
        ]
      }
    },
    {
      "type": "Feature",
      "properties": {
        "norad_id": 30756,
        "name": "FENGYUN 1C DEB",
        "group": "fengyun-1c-debris",
        "lat": -29.855930293151314,
        "lon": -124.43053803219883,
        "alt_km": 833.9076309168204,
        "timestamp": "2025-12-19T06:59:44.187191+00:00",
        "meta_object_name": "FENGYUN 1C DEB",
        "meta_object_id": "1999-025ATS",
        "meta_epoch": "2025-12-18T15:30:37.720224",
        "meta_mean_motion": 14.1831,
        "meta_eccentricity": 0.00714884,
        "meta_inclination": 98.9912,
        "meta_ra_of_asc_node": 60.1302,
        "meta_arg_of_pericenter": 299.0379,
        "meta_mean_anomaly": 219.3668,
        "meta_ephemeris_type": 0,
        "meta_classification_type": "U",
        "meta_norad_cat_id": 30756,
        "meta_element_set_no": 999,
        "meta_rev_at_epoch": 96488,
        "meta_bstar": 0.0011811282,
        "meta_mean_motion_dot": 2.449e-05,
        "meta_mean_motion_ddot": 0,
        "tle_line1": "1 30756U 99025ATS 25352.64626991  .00002449  00000+0  11811-2 0  9998",
        "tle_line2": "2 30756  98.9912  60.1302 0071488 299.0379 219.3668 14.18310000964888"
      },
      "geometry": {
        "type": "Point",
        "coordinates": [
          -124.43053803219883,
          -29.855930293151314
        ]
      }
    },
    {
      "type": "Feature",
      "properties": {
        "norad_id": 30758,
        "name": "FENGYUN 1C DEB",
        "group": "fengyun-1c-debris",
        "lat": -35.615294405610186,
        "lon": -74.45367456420965,
        "alt_km": 858.3189736810073,
        "timestamp": "2025-12-19T06:59:44.187201+00:00",
        "meta_object_name": "FENGYUN 1C DEB",
        "meta_object_id": "1999-025ATU",
        "meta_epoch": "2025-12-18T01:25:53.327136",
        "meta_mean_motion": 14.17131159,
        "meta_eccentricity": 0.00384032,
        "meta_inclination": 99.0185,
        "meta_ra_of_asc_node": 110.8298,
        "meta_arg_of_pericenter": 347.6484,
        "meta_mean_anomaly": 67.7822,
        "meta_ephemeris_type": 0,
        "meta_classification_type": "U",
        "meta_norad_cat_id": 30758,
        "meta_element_set_no": 999,
        "meta_rev_at_epoch": 96566,
        "meta_bstar": 0.0008333481,
        "meta_mean_motion_dot": 1.645e-05,
        "meta_mean_motion_ddot": 0,
        "tle_line1": "1 30758U 99025ATU 25352.05964499  .00001645  00000+0  83335-3 0  9991",
        "tle_line2": "2 30758  99.0185 110.8298 0038403 347.6484  67.7822 14.17131159965667"
      },
      "geometry": {
        "type": "Point",
        "coordinates": [
          -74.45367456420965,
          -35.615294405610186
        ]
      }
    },
    {
      "type": "Feature",
      "properties": {
        "norad_id": 30759,
        "name": "FENGYUN 1C DEB",
        "group": "fengyun-1c-debris",
        "lat": 74.48930042769001,
        "lon": 65.74686658327687,
        "alt_km": 701.448453076373,
        "timestamp": "2025-12-19T06:59:44.187235+00:00",
        "meta_object_name": "FENGYUN 1C DEB",
        "meta_object_id": "1999-025ATV",
        "meta_epoch": "2025-12-18T21:19:15.098880",
        "meta_mean_motion": 14.54630733,
        "meta_eccentricity": 0.00088701,
        "meta_inclination": 99.2581,
        "meta_ra_of_asc_node": 101.2978,
        "meta_arg_of_pericenter": 150.7212,
        "meta_mean_anomaly": 337.1294,
        "meta_ephemeris_type": 0,
        "meta_classification_type": "U",
        "meta_norad_cat_id": 30759,
        "meta_element_set_no": 999,
        "meta_rev_at_epoch": 97744,
        "meta_bstar": 0.0018085269,
        "meta_mean_motion_dot": 7.685e-05,
        "meta_mean_motion_ddot": 0,
        "tle_line1": "1 30759U 99025ATV 25352.88836920  .00007685  00000+0  18085-2 0  9999",
        "tle_line2": "2 30759  99.2581 101.2978 0008870 150.7212 337.1294 14.54630733977445"
      },
      "geometry": {
        "type": "Point",
        "coordinates": [
          65.74686658327687,
          74.48930042769001
        ]
      }
    }
  ]
}